HIMAWARI-8              
1 40267U 14060A   23291.88382667 -.00000264  00000+0  00000+0 0  9996
2 40267   0.0194 190.6234 0000606  16.3088 279.0270  1.00270375 33017
